{"type": "FeatureCollection", "features": [ {"type": "Feature", "properties": {"norad_id": 33698, "name": "FENGYUN 1C DEB", "group": "fengyun-1c-debris", "lat": 35.47471606967269, "lon": -48.651263169319016, "alt_km": 790.3731237307093, "timestamp": "2025-12-22T16:55:17.750650+00:00", "meta": {"OBJECT_NAME": "FENGYUN 1C DEB", "OBJECT_ID": "1999-025DGK", "EPOCH": "2025-12-20T15:15:49.424544", "MEAN_MOTION": 14.55733986, "ECCENTRICITY": 0.01376557, "INCLINATION": 99.6229, "RA_OF_ASC_NODE": 315.9104, "ARG_OF_PERICENTER": 194.3187, "MEAN_ANOMALY": 165.4088, "EPHEMERIS_TYPE": 0, "CLASSIFICATION_TYPE": "U", "NORAD_CAT_ID": 33698, "ELEMENT_SET_NO": 999, "REV_AT_EPOCH": 95751, "BSTAR": 0.00015627668, "MEAN_MOTION_DOT": 7.08e-06, "MEAN_MOTION_DDOT": 0}, "tle": {"line1": "1 33698U 99025DGK 25354.63598871  .00000708  00000+0  15628-3 0  9999", "line2": "2 33698  99.6229 315.9104 0137655 194.3187 165.4088 14.55733986957511"}}, "geometry": {"type": "Point", "coordinates": [-48.651263169319016, 35.47471606967269]}}, {"type": "Feature", "properties": {"norad_id": 33710, "name": "FENGYUN 1C DEB", "group": "fengyun-1c-debris", "lat": 7.509849127732723, "lon": 94.36279037433138, "alt_km": 870.5088796704313, "timestamp": "2025-12-22T16:55:17.750660+00:00", "meta": {"OBJECT_NAME": "FENGYUN 1C DEB", "OBJECT_ID": "1999-025DGX", "EPOCH": "2025-12-21T00:03:36.214272", "MEAN_MOTION": 14.11669685, "ECCENTRICITY": 0.0055755, "INCLINATION": 98.9796, "RA_OF_ASC_NODE": 93.8537, "ARG_OF_PERICENTER": 124.643, "MEAN_ANOMALY": 236.0015, "EPHEMERIS_TYPE": 0, "CLASSIFICATION_TYPE": "U", "NORAD_CAT_ID": 33710, "ELEMENT_SET_NO": 999, "REV_AT_EPOCH": 67773, "BSTAR": 0.00081859653, "MEAN_MOTION_DOT": 1.467e-05, "MEAN_MOTION_DDOT": 0}, "tle": {"line1": "1 33710U 99025DGX 25355.00250248  .00001467  00000+0  81860-3 0  9993", "line2": "2 33710  98.9796  93.8537 0055755 124.6430 236.0015 14.11669685677730"}}, "geometry": {"type": "Point", "coordinates": [94.36279037433138, 7.509849127732723]}}, {"type": "Feature", "properties": {"norad_id": 33711, "name": "FENGYUN 1C DEB", "group": "fengyun-1c-debris", "lat": 46.97058058422025, "lon": -119.79360997723293, "alt_km": 911.3198304430698, "timestamp": "2025-12-22T16:55:17.750670+00:00", "meta": {"OBJECT_NAME": "FENGYUN 1C DEB", "OBJECT_ID": "1999-025DGY", "EPOCH": "2025-12-22T02:43:29.083584", "MEAN_MOTION": 14.00930368, "ECCENTRICITY": 0.00957142, "INCLINATION": 99.1815, "RA_OF_ASC_NODE": 49.6345, "ARG_OF_PERICENTER": 22.2501, "MEAN_ANOMALY": 7.1873, "EPHEMERIS_TYPE": 0, "CLASSIFICATION_TYPE": "U", "NORAD_CAT_ID": 33711, "ELEMENT_SET_NO": 999, "REV_AT_EPOCH": 92063, "BSTAR": 0.00042071153, "MEAN_MOTION_DOT": 6.1e-06, "MEAN_MOTION_DDOT": 0}, "tle": {"line1": "1 33711U 99025DGY 25356.11353106  .00000610  00000+0  42071-3 0  9994", "line2": "2 33711  99.1815  49.6345 0095714  22.2501   7.1873 14.00930368920639"}}, "geometry": {"type": "Point", "coordinates": [-119.79360997723293, 46.97058058422025]}}, {"type": "Feature", "properties": {"norad_id": 33716, "name": "FENGYUN 1C DEB", "group": "fengyun-1c-debris", "lat": 50.33924341279119, "lon": 113.38723876291593, "alt_km": 840.8104797445458, "timestamp": "2025-12-22T16:55:17.750680+00:00", "meta": {"OBJECT_NAME": "FENGYUN 1C DEB", "OBJECT_ID": "1999-025DHD", "EPOCH": "2025-12-20T00:37:45.434784", "MEAN_MOTION": 14.32676609, "ECCENTRICITY": 0.00932596, "INCLINATION": 98.8749, "RA_OF_ASC_NODE": 279.7817, "ARG_OF_PERICENTER": 336.6348, "MEAN_ANOMALY": 23.061, "EPHEMERIS_TYPE": 0, "CLASSIFICATION_TYPE": "U", "NORAD_CAT_ID": 33716, "ELEMENT_SET_NO": 999, "REV_AT_EPOCH": 65262, "BSTAR": 0.00013018796, "MEAN_MOTION_DOT": 3.24e-06, "MEAN_MOTION_DDOT": 0}, "tle": {"line1": "1 33716U 99025DHD 25354.02622031  .00000324  00000+0  13019-3 0  9995", "line2": "2 33716  98.8749 279.7817 0093259 336.6348  23.0610 14.32676609652626"}}, "geometry": {"type": "Point", "coordinates": [113.38723876291593, 50.33924341279119]}}, {"type": "Feature", "properties": {"norad_id": 33718, "name": "FENGYUN 1C DEB", "group": "fengyun-1c-debris", "lat": 60.89635839473437, "lon": 66.18859296368022, "alt_km": 905.3370919148465, "timestamp": "2025-12-22T16:55:17.750690+00:00", "meta": {"OBJECT_NAME": "FENGYUN 1C DEB", "OBJECT_ID": "1999-025DHF", "EPOCH": "2025-12-19T23:49:22.963296", "MEAN_MOTION": 14.08105706, "ECCENTRICITY": 0.00982331, "INCLINATION": 99.6592, "RA_OF_ASC_NODE": 81.1024, "ARG_OF_PERICENTER": 299.7261, "MEAN_ANOMALY": 59.4158, "EPHEMERIS_TYPE": 0, "CLASSIFICATION_TYPE": "U", "NORAD_CAT_ID": 33718, "ELEMENT_SET_NO": 999, "REV_AT_EPOCH": 69288, "BSTAR": 0.0010316732, "MEAN_MOTION_DOT": 1.786e-05, "MEAN_MOTION_DDOT": 0}, "tle": {"line1": "1 33718U 99025DHF 25353.99262689  .00001786  00000+0  10317-2 0  9991", "line2": "2 33718  99.6592  81.1024 0098233 299.7261  59.4158 14.08105706692888"}}, "geometry": {"type": "Point", "coordinates": [66.18859296368022, 60.89635839473437]}}, {"type": "Feature", "properties": {"norad_id": 33719, "name": "FENGYUN 1C DEB", "group": "fengyun-1c-debris", "lat": 53.89366051012838, "lon": -111.13139188096113, "alt_km": 802.052290634535, "timestamp": "2025-12-22T16:55:17.750701+00:00", "meta": {"OBJECT_NAME": "FENGYUN 1C DEB", "OBJECT_ID": "1999-025DHG", "EPOCH": "2025-12-19T10:48:35.647776", "MEAN_MOTION": 14.23499746, "ECCENTRICITY": 0.0030347, "INCLINATION": 98.7733, "RA_OF_ASC_NODE": 53.4005, "ARG_OF_PERICENTER": 61.2166, "MEAN_ANOMALY": 314.1139, "EPHEMERIS_TYPE": 0, "CLASSIFICATION_TYPE": "U", "NORAD_CAT_ID": 33719, "ELEMENT_SET_NO": 999, "REV_AT_EPOCH": 92109, "BSTAR": 0.00061462, "MEAN_MOTION_DOT": 1.36e-05, "MEAN_MOTION_DDOT": 0}, "tle": {"line1": "1 33719U 99025DHG 25353.45041259  .00001360  00000+0  61462-3 0  9997", "line2": "2 33719  98.7733  53.4005 0030347  61.2166 314.1139 14.23499746921090"}}, "geometry": {"type": "Point", "coordinates": [-111.13139188096113, 53.89366051012838]}}, {"type": "Feature", "properties": {"norad_id": 33722, "name": "FENGYUN 1C DEB", "group": "fengyun-1c-debris", "lat": -50.208520478542546, "lon": 21.212870763614376, "alt_km": 818.5072545797393, "timestamp": "2025-12-22T16:55:17.750711+00:00", "meta": {"OBJECT_NAME": "FENGYUN 1C DEB", "OBJECT_ID": "1999-025DHK", "EPOCH": "2025-12-21T07:22:27.409152", "MEAN_MOTION": 14.21382482, "ECCENTRICITY": 0.0158453, "INCLINATION": 98.5735, "RA_OF_ASC_NODE": 9.4199, "ARG_OF_PERICENTER": 226.7726, "MEAN_ANOMALY": 132.0132, "EPHEMERIS_TYPE": 0, "CLASSIFICATION_TYPE": "U", "NORAD_CAT_ID": 33722, "ELEMENT_SET_NO": 999, "REV_AT_EPOCH": 92269, "BSTAR": 0.00048206, "MEAN_MOTION_DOT": 1.151e-05, "MEAN_MOTION_DDOT": 0}, "tle": {"line1": "1 33722U 99025DHK 25355.30726168  .00001151  00000+0  48206-3 0  9995", "line2": "2 33722  98.5735   9.4199 0158453 226.7726 132.0132 14.21382482922691"}}, "geometry": {"type": "Point", "coordinates": [21.212870763614376, -50.208520478542546]}}, {"type": "Feature", "properties": {"norad_id": 33723, "name": "FENGYUN 1C DEB", "group": "fengyun-1c-debris", "lat": 54.53447234818404, "lon": -89.41017585337622, "alt_km": 913.9237987773067, "timestamp": "2025-12-22T16:55:17.750721+00:00", "meta": {"OBJECT_NAME": "FENGYUN 1C DEB", "OBJECT_ID": "1999-025DHL", "EPOCH": "2025-12-20T04:59:52.476864", "MEAN_MOTION": 14.13346573, "ECCENTRICITY": 0.00986593, "INCLINATION": 99.1535, "RA_OF_ASC_NODE": 74.9552, "ARG_OF_PERICENTER": 309.2442, "MEAN_ANOMALY": 78.1701, "EPHEMERIS_TYPE": 0, "CLASSIFICATION_TYPE": "U", "NORAD_CAT_ID": 33723, "ELEMENT_SET_NO": 999, "REV_AT_EPOCH": 63729, "BSTAR": 0.001358788, "MEAN_MOTION_DOT": 2.624e-05, "MEAN_MOTION_DDOT": 0}, "tle": {"line1": "1 33723U 99025DHL 25354.20824626  .00002624  00000+0  13588-2 0  9992", "line2": "2 33723  99.1535  74.9552 0098659 309.2442  78.1701 14.13346573637293"}}, "geometry": {"type": "Point", "coordinates": [-89.41017585337622, 54.53447234818404]}}, {"type": "Feature", "properties": {"norad_id": 33724, "name": "FENGYUN 1C DEB", "group": "fengyun-1c-debris", "lat": 79.42778162592519, "lon": -47.47502278088041, "alt_km": 811.9012848419507, "timestamp": "2025-12-22T16:55:17.750731+00:00", "meta": {"OBJECT_NAME": "FENGYUN 1C DEB", "OBJECT_ID": "1999-025DHM", "EPOCH": "2025-12-22T06:40:37.155648", "MEAN_MOTION": 14.19663244, "ECCENTRICITY": 0.00279005, "INCLINATION": 98.6032, "RA_OF_ASC_NODE": 6.3154, "ARG_OF_PERICENTER": 154.2406, "MEAN_ANOMALY": 269.5567, "EPHEMERIS_TYPE": 0, "CLASSIFICATION_TYPE": "U", "NORAD_CAT_ID": 33724, "ELEMENT_SET_NO": 999, "REV_AT_EPOCH": 94097, "BSTAR": 0.00040045162, "MEAN_MOTION_DOT": 8.07e-06, "MEAN_MOTION_DDOT": 0}, "tle": {"line1": "1 33724U 99025DHM 25356.27820782  .00000807  00000+0  40045-3 0  9991", "line2": "2 33724  98.6032   6.3154 0027900 154.2406 269.5567 14.19663244940977"}}, "geometry": {"type": "Point", "coordinates": [-47.47502278088041, 79.42778162592519]}}, {"type": "Feature", "properties": {"norad_id": 33726, "name": "FENGYUN 1C DEB", "group": "fengyun-1c-debris", "lat": -60.07824823800621, "lon": -74.72167772433122, "alt_km": 922.1290176666989, "timestamp": "2025-12-22T16:55:17.750742+00:00", "meta": {"OBJECT_NAME": "FENGYUN 1C DEB", "OBJECT_ID": "1999-025DHP", "EPOCH": "2025-12-21T20:06:42.121728", "MEAN_MOTION": 14.14316373, "ECCENTRICITY": 0.01922915, "INCLINATION": 98.6393, "RA_OF_ASC_NODE": 119.7564, "ARG_OF_PERICENTER": 5.0492, "MEAN_ANOMALY": 145.7409, "EPHEMERIS_TYPE": 0, "CLASSIFICATION_TYPE": "U", "NORAD_CAT_ID": 33726, "ELEMENT_SET_NO": 999, "REV_AT_EPOCH": 92060, "BSTAR": 0.00023505238, "MEAN_MOTION_DOT": 4.93e-06, "MEAN_MOTION_DDOT": 0}, "tle": {"line1": "1 33726U 99025DHP 25355.83798752  .00000493  00000+0  23505-3 0  9998", "line2": "2 33726  98.6393 119.7564 0192291   5.0492 145.7409 14.14316373920608"}}, "geometry": {"type": "Point", "coordinates": [-74.72167772433122, -60.07824823800621]}}]}